{
  "type": "FeatureCollection",
  "features": [
    {
      "type": "Feature",
      "properties": {
        "norad_id": 66575,
        "name": "STARLINK-35810",
        "group": "last-30-days",
        "lat": 34.229871758882304,
        "lon": 93.82791939829832,
        "alt_km": 433.511213459552,
        "timestamp": "2025-12-25T09:48:51.003091+00:00",
        "meta_object_name": "STARLINK-35810",
        "meta_object_id": "2025-268U",
        "meta_epoch": "2025-12-25T04:00:01.998720",
        "meta_mean_motion": 15.43806503,
        "meta_eccentricity": 0.0001277,
        "meta_inclination": 43.0006,
        "meta_ra_of_asc_node": 48.3346,
        "meta_arg_of_pericenter": 276.3181,
        "meta_mean_anomaly": 231.9244,
        "meta_ephemeris_type": 0,
        "meta_classification_type": "U",
        "meta_norad_cat_id": 66575,
        "meta_element_set_no": 999,
        "meta_rev_at_epoch": 615,
        "meta_bstar": -0.049448,
        "meta_mean_motion_dot": -0.02038673,
        "meta_mean_motion_ddot": 0,
        "tle_line1": "1 66575U 25268U   25359.16668980 -.02038673  00000+0 -49448-1 0  9990",
        "tle_line2": "2 66575  43.0006  48.3346 0001277 276.3181 231.9244 15.43806503  6159"
      },
      "geometry": {
        "type": "Point",
        "coordinates": [
          93.82791939829832,
          34.229871758882304
        ]
      }
    },
    {
      "type": "Feature",
      "properties": {
        "norad_id": 66576,
        "name": "STARLINK-35814",
        "group": "last-30-days",
        "lat": 38.67229143254408,
        "lon": 106.09551947117835,
        "alt_km": 430.4705351720386,
        "timestamp": "2025-12-25T09:48:51.003101+00:00",
        "meta_object_name": "STARLINK-35814",
        "meta_object_id": "2025-268V",
        "meta_epoch": "2025-12-25T04:00:01.998720",
        "meta_mean_motion": 15.44646458,
        "meta_eccentricity": 0.0001293,
        "meta_inclination": 43.0009,
        "meta_ra_of_asc_node": 48.3099,
        "meta_arg_of_pericenter": 275.6746,
        "meta_mean_anomaly": 242.6525,
        "meta_ephemeris_type": 0,
        "meta_classification_type": "U",
        "meta_norad_cat_id": 66576,
        "meta_element_set_no": 999,
        "meta_rev_at_epoch": 615,
        "meta_bstar": -0.048195,
        "meta_mean_motion_dot": -0.02044449,
        "meta_mean_motion_ddot": 0,
        "tle_line1": "1 66576U 25268V   25359.16668980 -.02044449  00000+0 -48195-1 0  9997",
        "tle_line2": "2 66576  43.0009  48.3099 0001293 275.6746 242.6525 15.44646458  6158"
      },
      "geometry": {
        "type": "Point",
        "coordinates": [
          106.09551947117835,
          38.67229143254408
        ]
      }
    },
    {
      "type": "Feature",
      "properties": {
        "norad_id": 66577,
        "name": "STARLINK-35815",
        "group": "last-30-days",
        "lat": 42.51904315727975,
        "lon": 126.59764979362436,
        "alt_km": 425.5621372234864,
        "timestamp": "2025-12-25T09:48:51.003111+00:00",
        "meta_object_name": "STARLINK-35815",
        "meta_object_id": "2025-268W",
        "meta_epoch": "2025-12-25T04:00:01.998720",
        "meta_mean_motion": 15.46090335,
        "meta_eccentricity": 9.55e-05,
        "meta_inclination": 43.0006,
        "meta_ra_of_asc_node": 48.2735,
        "meta_arg_of_pericenter": 271.7357,
        "meta_mean_anomaly": 261.3384,
        "meta_ephemeris_type": 0,
        "meta_classification_type": "U",
        "meta_norad_cat_id": 66577,
        "meta_element_set_no": 999,
        "meta_rev_at_epoch": 615,
        "meta_bstar": -0.046003,
        "meta_mean_motion_dot": -0.02050516,
        "meta_mean_motion_ddot": 0,
        "tle_line1": "1 66577U 25268W   25359.16668980 -.02050516  00000+0 -46003-1 0  9996",
        "tle_line2": "2 66577  43.0006  48.2735 0000955 271.7357 261.3384 15.46090335  6151"
      },
      "geometry": {
        "type": "Point",
        "coordinates": [
          126.59764979362436,
          42.51904315727975
        ]
      }
    },
    {
      "type": "Feature",
      "properties": {
        "norad_id": 66578,
        "name": "STARLINK-35743",
        "group": "last-30-days",
        "lat": 42.95543587855654,
        "lon": 139.23145965371825,
        "alt_km": 423.06645611446584,
        "timestamp": "2025-12-25T09:48:51.003122+00:00",
        "meta_object_name": "STARLINK-35743",
        "meta_object_id": "2025-268X",
        "meta_epoch": "2025-12-25T04:00:01.998720",
        "meta_mean_motion": 15.4692912,
        "meta_eccentricity": 0.0001001,
        "meta_inclination": 43.0006,
        "meta_ra_of_asc_node": 48.2528,
        "meta_arg_of_pericenter": 272.2859,
        "meta_mean_anomaly": 269.3389,
        "meta_ephemeris_type": 0,
        "meta_classification_type": "U",
        "meta_norad_cat_id": 66578,
        "meta_element_set_no": 999,
        "meta_rev_at_epoch": 615,
        "meta_bstar": -0.044748,
        "meta_mean_motion_dot": -0.02053501,
        "meta_mean_motion_ddot": 0,
        "tle_line1": "1 66578U 25268X   25359.16668980 -.02053501  00000+0 -44748-1 0  9998",
        "tle_line2": "2 66578  43.0006  48.2528 0001001 272.2859 269.3389 15.46929120  6154"
      },
      "geometry": {
        "type": "Point",
        "coordinates": [
          139.23145965371825,
          42.95543587855654
        ]
      }
    },
    {
      "type": "Feature",
      "properties": {
        "norad_id": 66579,
        "name": "STARLINK-35868",
        "group": "last-30-days",
        "lat": 42.09601397754175,
        "lon": 151.00997558667234,
        "alt_km": 420.6775507674074,
        "timestamp": "2025-12-25T09:48:51.003132+00:00",
        "meta_object_name": "STARLINK-35868",
        "meta_object_id": "2025-268Y",
        "meta_epoch": "2025-12-25T04:00:01.998720",
        "meta_mean_motion": 15.47766857,
        "meta_eccentricity": 9.5e-05,
        "meta_inclination": 43.0004,
        "meta_ra_of_asc_node": 48.2331,
        "meta_arg_of_pericenter": 273.2142,
        "meta_mean_anomaly": 276.4022,
        "meta_ephemeris_type": 0,
        "meta_classification_type": "U",
        "meta_norad_cat_id": 66579,
        "meta_element_set_no": 999,
        "meta_rev_at_epoch": 616,
        "meta_bstar": -0.043445,
        "meta_mean_motion_dot": -0.0205321,
        "meta_mean_motion_ddot": 0,
        "tle_line1": "1 66579U 25268Y   25359.16668980 -.02053210  00000+0 -43445-1 0  9999",
        "tle_line2": "2 66579  43.0004  48.2331 0000950 273.2142 276.4022 15.47766857  6164"
      },
      "geometry": {
        "type": "Point",
        "coordinates": [
          151.00997558667234,
          42.09601397754175
        ]
      }
    },
    {
      "type": "Feature",
      "properties": {
        "norad_id": 66580,
        "name": "STARLINK-35872",
        "group": "last-30-days",
        "lat": 40.23656603526587,
        "lon": 161.56880765039998,
        "alt_km": 418.4094473171144,
        "timestamp": "2025-12-25T09:48:51.003142+00:00",
        "meta_object_name": "STARLINK-35872",
        "meta_object_id": "2025-268Z",
        "meta_epoch": "2025-12-25T04:00:01.998720",
        "meta_mean_motion": 15.4860232,
        "meta_eccentricity": 8.93e-05,
        "meta_inclination": 43.0004,
        "meta_ra_of_asc_node": 48.2152,
        "meta_arg_of_pericenter": 270.1839,
        "meta_mean_anomaly": 286.8646,
        "meta_ephemeris_type": 0,
        "meta_classification_type": "U",
        "meta_norad_cat_id": 66580,
        "meta_element_set_no": 999,
        "meta_rev_at_epoch": 616,
        "meta_bstar": -0.042144,
        "meta_mean_motion_dot": -0.02051574,
        "meta_mean_motion_ddot": 0,
        "tle_line1": "1 66580U 25268Z   25359.16668980 -.02051574  00000+0 -42144-1 0  9997",
        "tle_line2": "2 66580  43.0004  48.2152 0000893 270.1839 286.8646 15.48602320  6164"
      },
      "geometry": {
        "type": "Point",
        "coordinates": [
          161.56880765039998,
          40.23656603526587
        ]
      }
    },
    {
      "type": "Feature",
      "properties": {
        "norad_id": 66581,
        "name": "STARLINK-35744",
        "group": "last-30-days",
        "lat": 37.68999901308504,
        "lon": 170.7789096991392,
        "alt_km": 416.3555987101954,
        "timestamp": "2025-12-25T09:48:51.003152+00:00",
        "meta_object_name": "STARLINK-35744",
        "meta_object_id": "2025-268AA",
        "meta_epoch": "2025-12-25T04:00:01.998720",
        "meta_mean_motion": 15.49441356,
        "meta_eccentricity": 9.79e-05,
        "meta_inclination": 43.0009,
        "meta_ra_of_asc_node": 48.1976,
        "meta_arg_of_pericenter": 271.0092,
        "meta_mean_anomaly": 292.908,
        "meta_ephemeris_type": 0,
        "meta_classification_type": "U",
        "meta_norad_cat_id": 66581,
        "meta_element_set_no": 999,
        "meta_rev_at_epoch": 616,
        "meta_bstar": -0.040943,
        "meta_mean_motion_dot": -0.02053257,
        "meta_mean_motion_ddot": 0,
        "tle_line1": "1 66581U 25268AA  25359.16668980 -.02053257  00000+0 -40943-1 0  9993",
        "tle_line2": "2 66581  43.0009  48.1976 0000979 271.0092 292.9080 15.49441356  6160"
      },
      "geometry": {
        "type": "Point",
        "coordinates": [
          170.7789096991392,
          37.68999901308504
        ]
      }
    }
  ]
}